QIANFAN-41              
1 62242U 24232F   25225.59214590  .00000041  00000+0  44112-4 0  9990
2 62242  88.9930  53.4368 0014043 173.4778 186.6559 13.50960389 82894
QIANFAN-42              
1 62243U 24232G   25225.52133385  .00000133  00000+0  51219-4 0  9994
2 62243  88.9929  51.2150 0017056 117.0315 243.2621 14.24336720 84111
QIANFAN-43              
1 62244U 24232H   25225.58804214  .00000039  00000+0  42491-4 0  9994
2 62244  88.9934  53.4972 0015362 179.4921 180.6249 13.50953152 51506
QIANFAN-44              
1 62245U 24232J   25225.57569955  .00000031  00000+0  29158-4 0  9991
2 62245  88.9933  53.3109 0013699 175.6458 184.4814 13.50963117 82978
QIANFAN-45              
1 62246U 24232K   25225.54278505  .00000035  00000+0  36161-4 0  9993
2 62246  88.9936  53.4567 0014353 175.8095 184.3179 13.50958885 82898
QIANFAN-46              
1 62247U 24232L   25225.56745747  .00000028  00000+0  25262-4 0  9995
2 62247  88.9932  53.5281 0014231 181.2471 178.8647 13.50960919 82858
QIANFAN-47              
1 62248U 24232M   25225.57150109  .00000030  00000+0  27045-4 0  9993
2 62248  88.9928  53.4655 0014684 180.5851 179.5286 13.50960670 82888
QIANFAN-48              
1 62249U 24232N   25225.60861476  .00000038  00000+0  40190-4 0  9998
2 62249  88.9932  53.4588 0016846 184.1620 175.9394 13.50963615 82898
